SL-16 R/B               
1 22803U 93059B   26113.64877615 -.00000048  00000+0 -22264-6 0  9993
2 22803  70.9891 276.3148 0015948 148.1613 212.0478 14.17238093685903
ARIANE 40 R/B           
1 22830U 93061H   26114.15789318  .00000145  00000+0  68687-4 0  9998
2 22830  98.4846 182.1305 0011535 144.9089 215.2858 14.32883595700619
COSMOS 2278             
1 23087U 94023A   26114.21444456  .00000242  00000+0  15109-3 0  9998
2 23087  71.0531  79.8484 0010402 309.8994  50.1213 14.14386435651247
SL-16 R/B               
1 23088U 94023B   26114.02828968 -.00000136  00000+0 -45414-4 0  9999
2 23088  71.0002 335.6738 0005241 244.1957 115.8625 14.15015471652507
SL-16 R/B               
1 23343U 94074B   26114.10963138  .00000282  00000+0  44362-4 0  9998
2 23343  97.7040 143.0735 0008055  77.1184 348.8262 14.79454388693962
SL-16 R/B               
1 23405U 94077B   26113.63891443  .00000170  00000+0  11144-3 0  9993
2 23405  70.9824 257.9202 0000548 132.8081 227.3088 14.15571583622597
ARIANE 40+ R/B          
1 23561U 95021B   26114.19648838  .00000194  00000+0  75615-4 0  9996
2 23561  98.4432 185.0460 0006832  16.7743  42.0483 14.39802353625798
SL-16 R/B               
1 23705U 95058B   26114.28408316 -.00000112  00000+0 -32820-4 0  9994
2 23705  71.0204  84.5284 0010875  41.5574 318.6374 14.15505195574308
SL-16 R/B               
1 24298U 96051B   26114.27890377  .00000087  00000+0  73720-4 0  9990
2 24298  70.7598  78.7421 0012498  69.2692 290.9766 14.12427342528082
ORBVIEW 2 (SEASTAR)     
1 24883U 97037A   26114.00252448  .00000188  00000+0  81600-4 0  9995
2 24883  98.8640 279.5329 0001130 298.6380  61.4691 14.35523971514973
SL-16 R/B               
1 25400U 98043G   26113.63598477  .00000041  00000+0  36337-4 0  9997
2 25400  98.8323  67.3393 0008851 241.5249 118.5040 14.26059338445391
SL-16 R/B               
1 25407U 98045B   26114.20198134 -.00000250  00000+0 -10211-3 0  9992
2 25407  71.0097  85.8607 0009261 305.2330  54.7926 14.16197255433545
ISS (ZARYA)             
1 25544U 98067A   26113.61927547  .00009382  00000+0  17870-3 0  9991
2 25544  51.6319 210.1816 0006828 342.1779  17.8969 15.48913482563293
CZ-4B R/B               
1 25732U 99025C   26114.09188203  .00000025  00000+0  33033-4 0  9991
2 25732  98.6538 157.2783 0036529 212.7916 174.6668 14.18273702394601
OKEAN-O                 
1 25860U 99039A   26114.14122191  .00000396  00000+0  58684-4 0  9998
2 25860  97.9359 173.5498 0001468 115.4462 244.6902 14.80399884441116
SL-16 R/B               
1 25861U 99039B   26114.14599644  .00000362  00000+0  52614-4 0  9990
2 25861  97.9879 173.1531 0016135 108.6286 251.6680 14.81787913443593
DELTA 2 R/B             
1 25876U 99041E   26114.17077590  .00000457  00000+0  11333-3 0  9990
2 25876  51.7593 119.5842 0502498 122.5454 242.5049 14.11925941369451
